{
    "links": {
        "self": "http://www.neowsapp.com/rest/v1/neo/3046120?api_key=iIulBulltgU6a56xZRHN4H3l9WmuAYTsLGpBGhQ2"
    },
    "id": "3046120",
    "neo_reference_id": "3046120",
    "name": "(2000 PY5)",
    "designation": "2000 PY5",
    "nasa_jpl_url": "http://ssd.jpl.nasa.gov/sbdb.cgi?sstr=3046120",
    "absolute_magnitude_h": 21.1,
    "estimated_diameter": {
        "kilometers": {
            "estimated_diameter_min": 0.160160338,
            "estimated_diameter_max": 0.358129403
        },
        "meters": {
            "estimated_diameter_min": 160.1603379786,
            "estimated_diameter_max": 358.1294030194
        },
        "miles": {
            "estimated_diameter_min": 0.0995189894,
            "estimated_diameter_max": 0.2225312253
        },
        "feet": {
            "estimated_diameter_min": 525.4604432536,
            "estimated_diameter_max": 1174.9652706022
        }
    },
    "is_potentially_hazardous_asteroid": true,
    "close_approach_data": [
        {
            "close_approach_date": "2000-07-11",
            "close_approach_date_full": "2000-Jul-11 14:28",
            "epoch_date_close_approach": 963325680000,
            "relative_velocity": {
                "kilometers_per_second": "12.9972404079",
                "kilometers_per_hour": "46790.0654682647",
                "miles_per_hour": "29073.5270683226"
            },
            "miss_distance": {
                "astronomical": "0.0560590143",
                "lunar": "21.8069565627",
                "kilometers": "8386309.133579541",
                "miles": "5211010.8578220258"
            },
            "orbiting_body": "Earth"
        }
    ],
    "orbital_data": {
        "orbit_id": "14",
        "orbit_determination_date": "2017-04-06 09:16:56",
        "first_observation_date": "2000-08-02",
        "last_observation_date": "2000-09-02",
        "data_arc_in_days": 31,
        "observations_used": 43,
        "orbit_uncertainty": "7",
        "minimum_orbit_intersection": ".0467275",
        "jupiter_tisserand_invariant": "3.310",
        "epoch_osculation": "2459000.5",
        "eccentricity": ".6008399902527463",
        "semi_major_axis": "2.317113596838495",
        "inclination": "3.791710825564524",
        "ascending_node_longitude": "147.3721525821125",
        "orbital_period": "1288.307144859622",
        "perihelion_distance": ".9248990858995476",
        "perihelion_argument": "94.75831260962933",
        "aphelion_distance": "3.709328107777441",
        "perihelion_time": "2459423.066925355628",
        "mean_anomaly": "241.9193903138664",
        "mean_motion": ".2794364693515897",
        "equinox": "J2000",
        "orbit_class": {
            "orbit_class_type": "APO",
            "orbit_class_description": "Near-Earth asteroid orbits which cross the Earth’s orbit similar to that of 1862 Apollo",
            "orbit_class_range": "a (semi-major axis) > 1.0 AU; q (perihelion) < 1.017 AU"
        }
    },
    "is_sentry_object": false
}